{
  "type": "FeatureCollection",
  "features": [
    {
      "type": "Feature",
      "properties": {
        "norad_id": 66835,
        "name": "STARLINK-35890",
        "group": "last-30-days",
        "lat": -63.706573552498114,
        "lon": 28.353168164203737,
        "alt_km": 413.7339196318826,
        "timestamp": "2025-12-26T10:30:48.975363+00:00",
        "meta_object_name": "STARLINK-35890",
        "meta_object_id": "2025-280Q",
        "meta_epoch": "2025-12-26T03:14:38.490144",
        "meta_mean_motion": 15.52544059,
        "meta_eccentricity": 0.0003154,
        "meta_inclination": 70.0007,
        "meta_ra_of_asc_node": 161.6932,
        "meta_arg_of_pericenter": 274.4299,
        "meta_mean_anomaly": 85.6528,
        "meta_ephemeris_type": 0,
        "meta_classification_type": "U",
        "meta_norad_cat_id": 66835,
        "meta_element_set_no": 999,
        "meta_rev_at_epoch": 501,
        "meta_bstar": 0.0014013,
        "meta_mean_motion_dot": 0.00087066,
        "meta_mean_motion_ddot": 0,
        "tle_line1": "1 66835U 25280Q   25360.13516771  .00087066  00000+0  14013-2 0  9999",
        "tle_line2": "2 66835  70.0007 161.6932 0003154 274.4299  85.6528 15.52544059  5012"
      },
      "geometry": {
        "type": "Point",
        "coordinates": [
          28.353168164203737,
          -63.706573552498114
        ]
      }
    },
    {
      "type": "Feature",
      "properties": {
        "norad_id": 66836,
        "name": "STARLINK-35838",
        "group": "last-30-days",
        "lat": -64.8767876379375,
        "lon": 31.820545574021438,
        "alt_km": 413.62828485383216,
        "timestamp": "2025-12-26T10:30:48.975392+00:00",
        "meta_object_name": "STARLINK-35838",
        "meta_object_id": "2025-280R",
        "meta_epoch": "2025-12-26T03:14:08.875680",
        "meta_mean_motion": 15.52541881,
        "meta_eccentricity": 0.0003342,
        "meta_inclination": 70.0008,
        "meta_ra_of_asc_node": 161.6916,
        "meta_arg_of_pericenter": 275.7935,
        "meta_mean_anomaly": 84.2871,
        "meta_ephemeris_type": 0,
        "meta_classification_type": "U",
        "meta_norad_cat_id": 66836,
        "meta_element_set_no": 999,
        "meta_rev_at_epoch": 501,
        "meta_bstar": 0.0013995,
        "meta_mean_motion_dot": 0.00086951,
        "meta_mean_motion_ddot": 0,
        "tle_line1": "1 66836U 25280R   25360.13482495  .00086951  00000+0  13995-2 0  9995",
        "tle_line2": "2 66836  70.0008 161.6916 0003342 275.7935  84.2871 15.52541881  5012"
      },
      "geometry": {
        "type": "Point",
        "coordinates": [
          31.820545574021438,
          -64.8767876379375
        ]
      }
    },
    {
      "type": "Feature",
      "properties": {
        "norad_id": 66837,
        "name": "STARLINK-35729",
        "group": "last-30-days",
        "lat": -65.95412090144104,
        "lon": 35.57269243045308,
        "alt_km": 413.7216236562281,
        "timestamp": "2025-12-26T10:30:48.975409+00:00",
        "meta_object_name": "STARLINK-35729",
        "meta_object_id": "2025-280S",
        "meta_epoch": "2025-12-26T03:13:39.165312",
        "meta_mean_motion": 15.52530766,
        "meta_eccentricity": 0.0003302,
        "meta_inclination": 70.0009,
        "meta_ra_of_asc_node": 161.69,
        "meta_arg_of_pericenter": 275.0053,
        "meta_mean_anomaly": 85.0757,
        "meta_ephemeris_type": 0,
        "meta_classification_type": "U",
        "meta_norad_cat_id": 66837,
        "meta_element_set_no": 999,
        "meta_rev_at_epoch": 501,
        "meta_bstar": 0.00089479,
        "meta_mean_motion_dot": 0.00055288,
        "meta_mean_motion_ddot": 0,
        "tle_line1": "1 66837U 25280S   25360.13448108  .00055288  00000+0  89479-3 0  9999",
        "tle_line2": "2 66837  70.0009 161.6900 0003302 275.0053  85.0757 15.52530766  5019"
      },
      "geometry": {
        "type": "Point",
        "coordinates": [
          35.57269243045308,
          -65.95412090144104
        ]
      }
    },
    {
      "type": "Feature",
      "properties": {
        "norad_id": 66838,
        "name": "STARLINK-35886",
        "group": "last-30-days",
        "lat": -67.81296586994124,
        "lon": 44.11421159508292,
        "alt_km": 414.12729570050215,
        "timestamp": "2025-12-26T10:30:48.975423+00:00",
        "meta_object_name": "STARLINK-35886",
        "meta_object_id": "2025-280T",
        "meta_epoch": "2025-12-26T03:12:40.198176",
        "meta_mean_motion": 15.5255474,
        "meta_eccentricity": 0.0003099,
        "meta_inclination": 70.0009,
        "meta_ra_of_asc_node": 161.6875,
        "meta_arg_of_pericenter": 298.9195,
        "meta_mean_anomaly": 61.1681,
        "meta_ephemeris_type": 0,
        "meta_classification_type": "U",
        "meta_norad_cat_id": 66838,
        "meta_element_set_no": 999,
        "meta_rev_at_epoch": 501,
        "meta_bstar": 0.0010651,
        "meta_mean_motion_dot": 0.00065985,
        "meta_mean_motion_ddot": 0,
        "tle_line1": "1 66838U 25280T   25360.13379859  .00065985  00000+0  10651-2 0  9996",
        "tle_line2": "2 66838  70.0009 161.6875 0003099 298.9195  61.1681 15.52554740  5014"
      },
      "geometry": {
        "type": "Point",
        "coordinates": [
          44.11421159508292,
          -67.81296586994124
        ]
      }
    },
    {
      "type": "Feature",
      "properties": {
        "norad_id": 66839,
        "name": "STARLINK-35717",
        "group": "last-30-days",
        "lat": -66.97061586143013,
        "lon": 39.81687632134643,
        "alt_km": 413.1312962148413,
        "timestamp": "2025-12-26T10:30:48.975433+00:00",
        "meta_object_name": "STARLINK-35717",
        "meta_object_id": "2025-280U",
        "meta_epoch": "2025-12-26T03:13:09.219072",
        "meta_mean_motion": 15.52555869,
        "meta_eccentricity": 0.0003847,
        "meta_inclination": 70.0009,
        "meta_ra_of_asc_node": 161.6886,
        "meta_arg_of_pericenter": 256.6799,
        "meta_mean_anomaly": 103.3959,
        "meta_ephemeris_type": 0,
        "meta_classification_type": "U",
        "meta_norad_cat_id": 66839,
        "meta_element_set_no": 999,
        "meta_rev_at_epoch": 501,
        "meta_bstar": 0.0013157,
        "meta_mean_motion_dot": 0.00081728,
        "meta_mean_motion_ddot": 0,
        "tle_line1": "1 66839U 25280U   25360.13413448  .00081728  00000+0  13157-2 0  9997",
        "tle_line2": "2 66839  70.0009 161.6886 0003847 256.6799 103.3959 15.52555869  5019"
      },
      "geometry": {
        "type": "Point",
        "coordinates": [
          39.81687632134643,
          -66.97061586143013
        ]
      }
    },
    {
      "type": "Feature",
      "properties": {
        "norad_id": 66840,
        "name": "STARLINK-35837",
        "group": "last-30-days",
        "lat": -68.59324254358366,
        "lon": 49.13899330499671,
        "alt_km": 413.40769872330293,
        "timestamp": "2025-12-26T10:30:48.975443+00:00",
        "meta_object_name": "STARLINK-35837",
        "meta_object_id": "2025-280V",
        "meta_epoch": "2025-12-25T22:33:49.876704",
        "meta_mean_motion": 15.52554783,
        "meta_eccentricity": 0.0003336,
        "meta_inclination": 70.0008,
        "meta_ra_of_asc_node": 162.2157,
        "meta_arg_of_pericenter": 274.4565,
        "meta_mean_anomaly": 85.6241,
        "meta_ephemeris_type": 0,
        "meta_classification_type": "U",
        "meta_norad_cat_id": 66840,
        "meta_element_set_no": 999,
        "meta_rev_at_epoch": 498,
        "meta_bstar": 0.0015173,
        "meta_mean_motion_dot": 0.00094417,
        "meta_mean_motion_ddot": 0,
        "tle_line1": "1 66840U 25280V   25359.94016061  .00094417  00000+0  15173-2 0  9995",
        "tle_line2": "2 66840  70.0008 162.2157 0003336 274.4565  85.6241 15.52554783  4985"
      },
      "geometry": {
        "type": "Point",
        "coordinates": [
          49.13899330499671,
          -68.59324254358366
        ]
      }
    },
    {
      "type": "Feature",
      "properties": {
        "norad_id": 66841,
        "name": "STARLINK-35715",
        "group": "last-30-days",
        "lat": -69.202176176082,
        "lon": 54.36922473615777,
        "alt_km": 413.3374868074525,
        "timestamp": "2025-12-26T10:30:48.975452+00:00",
        "meta_object_name": "STARLINK-35715",
        "meta_object_id": "2025-280W",
        "meta_epoch": "2025-12-25T17:54:59.759136",
        "meta_mean_motion": 15.52550254,
        "meta_eccentricity": 0.00033851,
        "meta_inclination": 70.0008,
        "meta_ra_of_asc_node": 162.7437,
        "meta_arg_of_pericenter": 274.3901,
        "meta_mean_anomaly": 85.6899,
        "meta_ephemeris_type": 0,
        "meta_classification_type": "U",
        "meta_norad_cat_id": 66841,
        "meta_element_set_no": 999,
        "meta_rev_at_epoch": 495,
        "meta_bstar": 0.0012511653,
        "meta_mean_motion_dot": 0.00077649,
        "meta_mean_motion_ddot": 0,
        "tle_line1": "1 66841U 25280W   25359.74652499  .00077649  00000+0  12512-2 0  9997",
        "tle_line2": "2 66841  70.0008 162.7437 0003385 274.3901  85.6899 15.52550254  4954"
      },
      "geometry": {
        "type": "Point",
        "coordinates": [
          54.36922473615777,
          -69.202176176082
        ]
      }
    }
  ]
}